{"type": "FeatureCollection", "features": [ {"type": "Feature", "properties": {"norad_id": 37562, "name": "IRIDIUM 33 DEB", "group": "iridium-33-debris", "lat": 79.15579831851593, "lon": 56.468892978441986, "alt_km": 679.3363016565627, "timestamp": "2025-12-27T13:34:49.681379+00:00", "meta": {"OBJECT_NAME": "IRIDIUM 33 DEB", "OBJECT_ID": "1997-051XX", "EPOCH": "2025-12-26T21:32:35.047104", "MEAN_MOTION": 14.56599093, "ECCENTRICITY": 0.0026167, "INCLINATION": 86.3734, "RA_OF_ASC_NODE": 37.4257, "ARG_OF_PERICENTER": 63.296, "MEAN_ANOMALY": 114.6437, "EPHEMERIS_TYPE": 0, "CLASSIFICATION_TYPE": "U", "NORAD_CAT_ID": 37562, "ELEMENT_SET_NO": 999, "REV_AT_EPOCH": 86534, "BSTAR": 0.0012111, "MEAN_MOTION_DOT": 5.442e-05, "MEAN_MOTION_DDOT": 0}, "tle": {"line1": "1 37562U 97051XX  25360.89762786  .00005442  00000+0  12111-2 0  9996", "line2": "2 37562  86.3734  37.4257 0026167  63.2960 114.6437 14.56599093865345"}}, "geometry": {"type": "Point", "coordinates": [56.468892978441986, 79.15579831851593]}}, {"type": "Feature", "properties": {"norad_id": 37565, "name": "IRIDIUM 33 DEB", "group": "iridium-33-debris", "lat": -45.72432310246526, "lon": -0.6368585496551599, "alt_km": 726.6177385311739, "timestamp": "2025-12-27T13:34:49.681395+00:00", "meta": {"OBJECT_NAME": "IRIDIUM 33 DEB", "OBJECT_ID": "1997-051YA", "EPOCH": "2025-12-26T17:56:16.184256", "MEAN_MOTION": 14.51576066, "ECCENTRICITY": 0.00144436, "INCLINATION": 86.3492, "RA_OF_ASC_NODE": 3.4741, "ARG_OF_PERICENTER": 43.044, "MEAN_ANOMALY": 317.1892, "EPHEMERIS_TYPE": 0, "CLASSIFICATION_TYPE": "U", "NORAD_CAT_ID": 37565, "ELEMENT_SET_NO": 999, "REV_AT_EPOCH": 66040, "BSTAR": 0.00060552562, "MEAN_MOTION_DOT": 2.446e-05, "MEAN_MOTION_DDOT": 0}, "tle": {"line1": "1 37565U 97051YA  25360.74740954  .00002446  00000+0  60553-3 0  9991", "line2": "2 37565  86.3492   3.4741 0014443  43.0440 317.1892 14.51576066660408"}}, "geometry": {"type": "Point", "coordinates": [-0.6368585496551599, -45.72432310246526]}}, {"type": "Feature", "properties": {"norad_id": 38017, "name": "IRIDIUM 33 DEB", "group": "iridium-33-debris", "lat": -79.72286317459658, "lon": 139.11775021542087, "alt_km": 779.2456096151163, "timestamp": "2025-12-27T13:34:49.681411+00:00", "meta": {"OBJECT_NAME": "IRIDIUM 33 DEB", "OBJECT_ID": "1997-051YD", "EPOCH": "2025-12-27T04:00:37.846080", "MEAN_MOTION": 14.49494573, "ECCENTRICITY": 0.00911371, "INCLINATION": 86.3413, "RA_OF_ASC_NODE": 159.9553, "ARG_OF_PERICENTER": 54.8204, "MEAN_ANOMALY": 306.1493, "EPHEMERIS_TYPE": 0, "CLASSIFICATION_TYPE": "U", "NORAD_CAT_ID": 38017, "ELEMENT_SET_NO": 999, "REV_AT_EPOCH": 61611, "BSTAR": 0.0052100119, "MEAN_MOTION_DOT": 0.00021111, "MEAN_MOTION_DDOT": 0}, "tle": {"line1": "1 38017U 97051YD  25361.16710470  .00021111  00000+0  52100-2 0  9999", "line2": "2 38017  86.3413 159.9553 0091137  54.8204 306.1493 14.49494573616118"}}, "geometry": {"type": "Point", "coordinates": [139.11775021542087, -79.72286317459658]}}, {"type": "Feature", "properties": {"norad_id": 38022, "name": "IRIDIUM 33 DEB", "group": "iridium-33-debris", "lat": -1.935463393280869, "lon": 9.823643311270201, "alt_km": 725.0860046234575, "timestamp": "2025-12-27T13:34:49.681429+00:00", "meta": {"OBJECT_NAME": "IRIDIUM 33 DEB", "OBJECT_ID": "1997-051YJ", "EPOCH": "2025-12-23T07:57:08.773056", "MEAN_MOTION": 14.41313849, "ECCENTRICITY": 0.00453843, "INCLINATION": 86.2683, "RA_OF_ASC_NODE": 11.8042, "ARG_OF_PERICENTER": 16.2864, "MEAN_ANOMALY": 343.9781, "EPHEMERIS_TYPE": 0, "CLASSIFICATION_TYPE": "U", "NORAD_CAT_ID": 38022, "ELEMENT_SET_NO": 999, "REV_AT_EPOCH": 69346, "BSTAR": 0.0010847612, "MEAN_MOTION_DOT": 3.57e-05, "MEAN_MOTION_DDOT": 0}, "tle": {"line1": "1 38022U 97051YJ  25357.33135154  .00003570  00000+0  10848-2 0  9991", "line2": "2 38022  86.2683  11.8042 0045384  16.2864 343.9781 14.41313849693468"}}, "geometry": {"type": "Point", "coordinates": [9.823643311270201, -1.935463393280869]}}, {"type": "Feature", "properties": {"norad_id": 38028, "name": "IRIDIUM 33 DEB", "group": "iridium-33-debris", "lat": 42.22853071969068, "lon": -2.831183552918803, "alt_km": 716.035238458433, "timestamp": "2025-12-27T13:34:49.681446+00:00", "meta": {"OBJECT_NAME": "IRIDIUM 33 DEB", "OBJECT_ID": "1997-051YQ", "EPOCH": "2025-12-19T17:44:22.316352", "MEAN_MOTION": 14.46188799, "ECCENTRICITY": 0.0030512, "INCLINATION": 86.3252, "RA_OF_ASC_NODE": 357.2262, "ARG_OF_PERICENTER": 99.065, "MEAN_ANOMALY": 261.4007, "EPHEMERIS_TYPE": 0, "CLASSIFICATION_TYPE": "U", "NORAD_CAT_ID": 38028, "ELEMENT_SET_NO": 999, "REV_AT_EPOCH": 65596, "BSTAR": 0.00016660929, "MEAN_MOTION_DOT": 6.2e-06, "MEAN_MOTION_DDOT": 0}, "tle": {"line1": "1 38028U 97051YQ  25353.73914718  .00000620  00000+0  16661-3 0  9991", "line2": "2 38028  86.3252 357.2262 0030512  99.0650 261.4007 14.46188799655964"}}, "geometry": {"type": "Point", "coordinates": [-2.831183552918803, 42.22853071969068]}}, {"type": "Feature", "properties": {"norad_id": 38228, "name": "IRIDIUM 33 DEB", "group": "iridium-33-debris", "lat": 47.790831134379104, "lon": 46.26432853789846, "alt_km": 799.3711905615037, "timestamp": "2025-12-27T13:34:49.681457+00:00", "meta": {"OBJECT_NAME": "IRIDIUM 33 DEB", "OBJECT_ID": "1997-051ZC", "EPOCH": "2025-12-20T22:20:09.818016", "MEAN_MOTION": 14.2727844, "ECCENTRICITY": 0.0065198, "INCLINATION": 86.2935, "RA_OF_ASC_NODE": 44.9869, "ARG_OF_PERICENTER": 163.0896, "MEAN_ANOMALY": 14.0405, "EPHEMERIS_TYPE": 0, "CLASSIFICATION_TYPE": "U", "NORAD_CAT_ID": 38228, "ELEMENT_SET_NO": 999, "REV_AT_EPOCH": 84898, "BSTAR": 0.00020665, "MEAN_MOTION_DOT": 5.36e-06, "MEAN_MOTION_DDOT": 0}, "tle": {"line1": "1 38228U 97051ZC  25354.93066919  .00000536  00000+0  20665-3 0  9992", "line2": "2 38228  86.2935  44.9869 0065198 163.0896  14.0405 14.27278440848980"}}, "geometry": {"type": "Point", "coordinates": [46.26432853789846, 47.790831134379104]}}, {"type": "Feature", "properties": {"norad_id": 38241, "name": "IRIDIUM 33 DEB", "group": "iridium-33-debris", "lat": 3.0126334673071886, "lon": -15.748913378746073, "alt_km": 709.4721896246492, "timestamp": "2025-12-27T13:34:49.681467+00:00", "meta": {"OBJECT_NAME": "IRIDIUM 33 DEB", "OBJECT_ID": "1997-051ZR", "EPOCH": "2025-12-27T05:18:49.294368", "MEAN_MOTION": 14.5496061, "ECCENTRICITY": 0.0004748, "INCLINATION": 86.3242, "RA_OF_ASC_NODE": 344.2091, "ARG_OF_PERICENTER": 41.2958, "MEAN_ANOMALY": 318.8607, "EPHEMERIS_TYPE": 0, "CLASSIFICATION_TYPE": "U", "NORAD_CAT_ID": 38241, "ELEMENT_SET_NO": 999, "REV_AT_EPOCH": 60411, "BSTAR": 0.00093229073, "MEAN_MOTION_DOT": 4.03e-05, "MEAN_MOTION_DDOT": 0}, "tle": {"line1": "1 38241U 97051ZR  25361.22140387  .00004030  00000+0  93229-3 0  9998", "line2": "2 38241  86.3242 344.2091 0004748  41.2958 318.8607 14.54960610604111"}}, "geometry": {"type": "Point", "coordinates": [-15.748913378746073, 3.0126334673071886]}}, {"type": "Feature", "properties": {"norad_id": 38474, "name": "IRIDIUM 33 DEB", "group": "iridium-33-debris", "lat": -85.59700782395826, "lon": -52.56740436104277, "alt_km": 742.6563665175099, "timestamp": "2025-12-27T13:34:49.681477+00:00", "meta": {"OBJECT_NAME": "IRIDIUM 33 DEB", "OBJECT_ID": "1997-051AAB", "EPOCH": "2025-12-21T07:20:31.212384", "MEAN_MOTION": 14.50718538, "ECCENTRICITY": 0.00276153, "INCLINATION": 86.3426, "RA_OF_ASC_NODE": 6.3307, "ARG_OF_PERICENTER": 61.1056, "MEAN_ANOMALY": 299.2914, "EPHEMERIS_TYPE": 0, "CLASSIFICATION_TYPE": "U", "NORAD_CAT_ID": 38474, "ELEMENT_SET_NO": 999, "REV_AT_EPOCH": 65442, "BSTAR": 0.00039085525, "MEAN_MOTION_DOT": 1.564e-05, "MEAN_MOTION_DDOT": 0}, "tle": {"line1": "1 38474U 97051AAB 25355.30591681  .00001564  00000+0  39086-3 0  9995", "line2": "2 38474  86.3426   6.3307 0027615  61.1056 299.2914 14.50718538654425"}}, "geometry": {"type": "Point", "coordinates": [-52.56740436104277, -85.59700782395826]}}, {"type": "Feature", "properties": {"norad_id": 39777, "name": "IRIDIUM 33 DEB", "group": "iridium-33-debris", "lat": -84.73209636927963, "lon": 117.86961932463421, "alt_km": 741.9549467004927, "timestamp": "2025-12-27T13:34:49.681488+00:00", "meta": {"OBJECT_NAME": "IRIDIUM 33 DEB", "OBJECT_ID": "1997-051AAJ", "EPOCH": "2025-12-26T21:29:47.806944", "MEAN_MOTION": 14.56768068, "ECCENTRICITY": 0.006056, "INCLINATION": 85.9637, "RA_OF_ASC_NODE": 168.1747, "ARG_OF_PERICENTER": 139.2248, "MEAN_ANOMALY": 221.3516, "EPHEMERIS_TYPE": 0, "CLASSIFICATION_TYPE": "U", "NORAD_CAT_ID": 39777, "ELEMENT_SET_NO": 999, "REV_AT_EPOCH": 60391, "BSTAR": 0.0035268, "MEAN_MOTION_DOT": 0.00016216, "MEAN_MOTION_DDOT": 0}, "tle": {"line1": "1 39777U 97051AAJ 25360.89569221  .00016216  00000+0  35268-2 0  9994", "line2": "2 39777  85.9637 168.1747 0060560 139.2248 221.3516 14.56768068603913"}}, "geometry": {"type": "Point", "coordinates": [117.86961932463421, -84.73209636927963]}}, {"type": "Feature", "properties": {"norad_id": 39778, "name": "IRIDIUM 33 DEB", "group": "iridium-33-debris", "lat": -14.249285622636933, "lon": 35.86644451276831, "alt_km": 711.6036607352944, "timestamp": "2025-12-27T13:34:49.681498+00:00", "meta": {"OBJECT_NAME": "IRIDIUM 33 DEB", "OBJECT_ID": "1997-051AAK", "EPOCH": "2025-12-25T20:21:50.179680", "MEAN_MOTION": 14.54348903, "ECCENTRICITY": 0.00065112, "INCLINATION": 86.3769, "RA_OF_ASC_NODE": 37.534, "ARG_OF_PERICENTER": 359.9142, "MEAN_ANOMALY": 0.2063, "EPHEMERIS_TYPE": 0, "CLASSIFICATION_TYPE": "U", "NORAD_CAT_ID": 39778, "ELEMENT_SET_NO": 999, "REV_AT_EPOCH": 60883, "BSTAR": 0.00084026877, "MEAN_MOTION_DOT": 3.588e-05, "MEAN_MOTION_DDOT": 0}, "tle": {"line1": "1 39778U 97051AAK 25359.84849745  .00003588  00000+0  84027-3 0  9996", "line2": "2 39778  86.3769  37.5340 0006511 359.9142   0.2063 14.54348903608830"}}, "geometry": {"type": "Point", "coordinates": [35.86644451276831, -14.249285622636933]}}]}